<?xml version="1.0" encoding="UTF-8"?>
<ndm xmlns:xsi="http://www.w3.org/2001/XMLSchema-instance" xsi:noNamespaceSchemaLocation="https://sanaregistry.org/r/ndmxml_unqualified/ndmxml-2.0.0-master-2.0.xsd">
<omm id="CCSDS_OMM_VERS" version="2.0">
<header><CREATION_DATE/><ORIGINATOR/></header><body><segment><metadata><OBJECT_NAME>KUIPER-00049</OBJECT_NAME><OBJECT_ID>2025-134K</OBJECT_ID><CENTER_NAME>EARTH</CENTER_NAME><REF_FRAME>TEME</REF_FRAME><TIME_SYSTEM>UTC</TIME_SYSTEM><MEAN_ELEMENT_THEORY>SGP4</MEAN_ELEMENT_THEORY></metadata><data><meanElements><EPOCH>2025-07-31T12:51:45.978912</EPOCH><MEAN_MOTION>15.35554836</MEAN_MOTION><ECCENTRICITY>.0006582</ECCENTRICITY><INCLINATION>51.8722</INCLINATION><RA_OF_ASC_NODE>147.4451</RA_OF_ASC_NODE><ARG_OF_PERICENTER>243.8692</ARG_OF_PERICENTER><MEAN_ANOMALY>116.1617</MEAN_ANOMALY></meanElements><tleParameters><EPHEMERIS_TYPE>0</EPHEMERIS_TYPE><CLASSIFICATION_TYPE>U</CLASSIFICATION_TYPE><NORAD_CAT_ID>64509</NORAD_CAT_ID><ELEMENT_SET_NO>999</ELEMENT_SET_NO><REV_AT_EPOCH>707</REV_AT_EPOCH><BSTAR>.69592E-3</BSTAR><MEAN_MOTION_DOT>.24127E-3</MEAN_MOTION_DOT><MEAN_MOTION_DDOT>0</MEAN_MOTION_DDOT></tleParameters></data></segment></body></omm>
<omm id="CCSDS_OMM_VERS" version="2.0">
<header><CREATION_DATE/><ORIGINATOR/></header><body><segment><metadata><OBJECT_NAME>KUIPER-00050</OBJECT_NAME><OBJECT_ID>2025-134L</OBJECT_ID><CENTER_NAME>EARTH</CENTER_NAME><REF_FRAME>TEME</REF_FRAME><TIME_SYSTEM>UTC</TIME_SYSTEM><MEAN_ELEMENT_THEORY>SGP4</MEAN_ELEMENT_THEORY></metadata><data><meanElements><EPOCH>2025-07-31T12:58:35.626368</EPOCH><MEAN_MOTION>15.35099005</MEAN_MOTION><ECCENTRICITY>.0006719</ECCENTRICITY><INCLINATION>51.8729</INCLINATION><RA_OF_ASC_NODE>147.4813</RA_OF_ASC_NODE><ARG_OF_PERICENTER>238.1345</ARG_OF_PERICENTER><MEAN_ANOMALY>121.8987</MEAN_ANOMALY></meanElements><tleParameters><EPHEMERIS_TYPE>0</EPHEMERIS_TYPE><CLASSIFICATION_TYPE>U</CLASSIFICATION_TYPE><NORAD_CAT_ID>64510</NORAD_CAT_ID><ELEMENT_SET_NO>999</ELEMENT_SET_NO><REV_AT_EPOCH>709</REV_AT_EPOCH><BSTAR>.92421E-3</BSTAR><MEAN_MOTION_DOT>.31732E-3</MEAN_MOTION_DOT><MEAN_MOTION_DDOT>0</MEAN_MOTION_DDOT></tleParameters></data></segment></body></omm>
<omm id="CCSDS_OMM_VERS" version="2.0">
<header><CREATION_DATE/><ORIGINATOR/></header><body><segment><metadata><OBJECT_NAME>KUIPER-00051</OBJECT_NAME><OBJECT_ID>2025-134M</OBJECT_ID><CENTER_NAME>EARTH</CENTER_NAME><REF_FRAME>TEME</REF_FRAME><TIME_SYSTEM>UTC</TIME_SYSTEM><MEAN_ELEMENT_THEORY>SGP4</MEAN_ELEMENT_THEORY></metadata><data><meanElements><EPOCH>2025-07-31T08:01:06.225312</EPOCH><MEAN_MOTION>15.35666556</MEAN_MOTION><ECCENTRICITY>.0004866</ECCENTRICITY><INCLINATION>51.8732</INCLINATION><RA_OF_ASC_NODE>148.3493</RA_OF_ASC_NODE><ARG_OF_PERICENTER>232.5745</ARG_OF_PERICENTER><MEAN_ANOMALY>127.4798</MEAN_ANOMALY></meanElements><tleParameters><EPHEMERIS_TYPE>0</EPHEMERIS_TYPE><CLASSIFICATION_TYPE>U</CLASSIFICATION_TYPE><NORAD_CAT_ID>64511</NORAD_CAT_ID><ELEMENT_SET_NO>999</ELEMENT_SET_NO><REV_AT_EPOCH>706</REV_AT_EPOCH><BSTAR>.83405E-3</BSTAR><MEAN_MOTION_DOT>.29108E-3</MEAN_MOTION_DOT><MEAN_MOTION_DDOT>0</MEAN_MOTION_DDOT></tleParameters></data></segment></body></omm>
<omm id="CCSDS_OMM_VERS" version="2.0">
<header><CREATION_DATE/><ORIGINATOR/></header><body><segment><metadata><OBJECT_NAME>KUIPER-00052</OBJECT_NAME><OBJECT_ID>2025-134N</OBJECT_ID><CENTER_NAME>EARTH</CENTER_NAME><REF_FRAME>TEME</REF_FRAME><TIME_SYSTEM>UTC</TIME_SYSTEM><MEAN_ELEMENT_THEORY>SGP4</MEAN_ELEMENT_THEORY></metadata><data><meanElements><EPOCH>2025-07-31T22:00:01.999584</EPOCH><MEAN_MOTION>15.44968882</MEAN_MOTION><ECCENTRICITY>.0004113</ECCENTRICITY><INCLINATION>51.8750</INCLINATION><RA_OF_ASC_NODE>144.9559</RA_OF_ASC_NODE><ARG_OF_PERICENTER>261.9020</ARG_OF_PERICENTER><MEAN_ANOMALY>10.9376</MEAN_ANOMALY></meanElements><tleParameters><EPHEMERIS_TYPE>0</EPHEMERIS_TYPE><CLASSIFICATION_TYPE>U</CLASSIFICATION_TYPE><NORAD_CAT_ID>64512</NORAD_CAT_ID><ELEMENT_SET_NO>999</ELEMENT_SET_NO><REV_AT_EPOCH>669</REV_AT_EPOCH><BSTAR>.19179E-1</BSTAR><MEAN_MOTION_DOT>.1010043E-1</MEAN_MOTION_DOT><MEAN_MOTION_DDOT>0</MEAN_MOTION_DDOT></tleParameters></data></segment></body></omm>
<omm id="CCSDS_OMM_VERS" version="2.0">
<header><CREATION_DATE/><ORIGINATOR/></header><body><segment><metadata><OBJECT_NAME>KUIPER-00053</OBJECT_NAME><OBJECT_ID>2025-134P</OBJECT_ID><CENTER_NAME>EARTH</CENTER_NAME><REF_FRAME>TEME</REF_FRAME><TIME_SYSTEM>UTC</TIME_SYSTEM><MEAN_ELEMENT_THEORY>SGP4</MEAN_ELEMENT_THEORY></metadata><data><meanElements><EPOCH>2025-07-31T02:48:39.137760</EPOCH><MEAN_MOTION>15.36633967</MEAN_MOTION><ECCENTRICITY>.000183</ECCENTRICITY><INCLINATION>51.8762</INCLINATION><RA_OF_ASC_NODE>149.1573</RA_OF_ASC_NODE><ARG_OF_PERICENTER>218.4169</ARG_OF_PERICENTER><MEAN_ANOMALY>141.6687</MEAN_ANOMALY></meanElements><tleParameters><EPHEMERIS_TYPE>0</EPHEMERIS_TYPE><CLASSIFICATION_TYPE>U</CLASSIFICATION_TYPE><NORAD_CAT_ID>64513</NORAD_CAT_ID><ELEMENT_SET_NO>999</ELEMENT_SET_NO><REV_AT_EPOCH>703</REV_AT_EPOCH><BSTAR>.53681E-3</BSTAR><MEAN_MOTION_DOT>.19163E-3</MEAN_MOTION_DOT><MEAN_MOTION_DDOT>0</MEAN_MOTION_DDOT></tleParameters></data></segment></body></omm>
<omm id="CCSDS_OMM_VERS" version="2.0">
<header><CREATION_DATE/><ORIGINATOR/></header><body><segment><metadata><OBJECT_NAME>KUIPER-00054</OBJECT_NAME><OBJECT_ID>2025-134Q</OBJECT_ID><CENTER_NAME>EARTH</CENTER_NAME><REF_FRAME>TEME</REF_FRAME><TIME_SYSTEM>UTC</TIME_SYSTEM><MEAN_ELEMENT_THEORY>SGP4</MEAN_ELEMENT_THEORY></metadata><data><meanElements><EPOCH>2025-07-31T02:55:28.484544</EPOCH><MEAN_MOTION>15.36459294</MEAN_MOTION><ECCENTRICITY>.0002429</ECCENTRICITY><INCLINATION>51.8749</INCLINATION><RA_OF_ASC_NODE>149.1860</RA_OF_ASC_NODE><ARG_OF_PERICENTER>222.0017</ARG_OF_PERICENTER><MEAN_ANOMALY>138.0783</MEAN_ANOMALY></meanElements><tleParameters><EPHEMERIS_TYPE>0</EPHEMERIS_TYPE><CLASSIFICATION_TYPE>U</CLASSIFICATION_TYPE><NORAD_CAT_ID>64514</NORAD_CAT_ID><ELEMENT_SET_NO>999</ELEMENT_SET_NO><REV_AT_EPOCH>703</REV_AT_EPOCH><BSTAR>.8574E-3</BSTAR><MEAN_MOTION_DOT>.30712E-3</MEAN_MOTION_DOT><MEAN_MOTION_DDOT>0</MEAN_MOTION_DDOT></tleParameters></data></segment></body></omm>
<omm id="CCSDS_OMM_VERS" version="2.0">
<header><CREATION_DATE/><ORIGINATOR/></header><body><segment><metadata><OBJECT_NAME>KUIPER-00055</OBJECT_NAME><OBJECT_ID>2025-134R</OBJECT_ID><CENTER_NAME>EARTH</CENTER_NAME><REF_FRAME>TEME</REF_FRAME><TIME_SYSTEM>UTC</TIME_SYSTEM><MEAN_ELEMENT_THEORY>SGP4</MEAN_ELEMENT_THEORY></metadata><data><meanElements><EPOCH>2025-07-31T05:40:18.201792</EPOCH><MEAN_MOTION>15.37058308</MEAN_MOTION><ECCENTRICITY>.000074</ECCENTRICITY><INCLINATION>51.8778</INCLINATION><RA_OF_ASC_NODE>148.4608</RA_OF_ASC_NODE><ARG_OF_PERICENTER>151.4742</ARG_OF_PERICENTER><MEAN_ANOMALY>208.6285</MEAN_ANOMALY></meanElements><tleParameters><EPHEMERIS_TYPE>0</EPHEMERIS_TYPE><CLASSIFICATION_TYPE>U</CLASSIFICATION_TYPE><NORAD_CAT_ID>64515</NORAD_CAT_ID><ELEMENT_SET_NO>999</ELEMENT_SET_NO><REV_AT_EPOCH>705</REV_AT_EPOCH><BSTAR>.88163E-3</BSTAR><MEAN_MOTION_DOT>.32218E-3</MEAN_MOTION_DOT><MEAN_MOTION_DDOT>0</MEAN_MOTION_DDOT></tleParameters></data></segment></body></omm>
<omm id="CCSDS_OMM_VERS" version="2.0">
<header><CREATION_DATE/><ORIGINATOR/></header><body><segment><metadata><OBJECT_NAME>KUIPER-00056</OBJECT_NAME><OBJECT_ID>2025-134S</OBJECT_ID><CENTER_NAME>EARTH</CENTER_NAME><REF_FRAME>TEME</REF_FRAME><TIME_SYSTEM>UTC</TIME_SYSTEM><MEAN_ELEMENT_THEORY>SGP4</MEAN_ELEMENT_THEORY></metadata><data><meanElements><EPOCH>2025-07-31T12:25:31.669824</EPOCH><MEAN_MOTION>15.36221545</MEAN_MOTION><ECCENTRICITY>.0006864</ECCENTRICITY><INCLINATION>51.8730</INCLINATION><RA_OF_ASC_NODE>147.3373</RA_OF_ASC_NODE><ARG_OF_PERICENTER>209.4490</ARG_OF_PERICENTER><MEAN_ANOMALY>150.6110</MEAN_ANOMALY></meanElements><tleParameters><EPHEMERIS_TYPE>0</EPHEMERIS_TYPE><CLASSIFICATION_TYPE>U</CLASSIFICATION_TYPE><NORAD_CAT_ID>64516</NORAD_CAT_ID><ELEMENT_SET_NO>999</ELEMENT_SET_NO><REV_AT_EPOCH>709</REV_AT_EPOCH><BSTAR>.73635E-3</BSTAR><MEAN_MOTION_DOT>.26118E-3</MEAN_MOTION_DOT><MEAN_MOTION_DDOT>0</MEAN_MOTION_DDOT></tleParameters></data></segment></body></omm>
<omm id="CCSDS_OMM_VERS" version="2.0">
<header><CREATION_DATE/><ORIGINATOR/></header><body><segment><metadata><OBJECT_NAME>KUIPER-00057</OBJECT_NAME><OBJECT_ID>2025-134T</OBJECT_ID><CENTER_NAME>EARTH</CENTER_NAME><REF_FRAME>TEME</REF_FRAME><TIME_SYSTEM>UTC</TIME_SYSTEM><MEAN_ELEMENT_THEORY>SGP4</MEAN_ELEMENT_THEORY></metadata><data><meanElements><EPOCH>2025-07-31T11:22:05.507040</EPOCH><MEAN_MOTION>15.35185626</MEAN_MOTION><ECCENTRICITY>.0006367</ECCENTRICITY><INCLINATION>51.8705</INCLINATION><RA_OF_ASC_NODE>147.7742</RA_OF_ASC_NODE><ARG_OF_PERICENTER>241.3728</ARG_OF_PERICENTER><MEAN_ANOMALY>118.6618</MEAN_ANOMALY></meanElements><tleParameters><EPHEMERIS_TYPE>0</EPHEMERIS_TYPE><CLASSIFICATION_TYPE>U</CLASSIFICATION_TYPE><NORAD_CAT_ID>64517</NORAD_CAT_ID><ELEMENT_SET_NO>999</ELEMENT_SET_NO><REV_AT_EPOCH>708</REV_AT_EPOCH><BSTAR>.28866E-3</BSTAR><MEAN_MOTION_DOT>.9644E-4</MEAN_MOTION_DOT><MEAN_MOTION_DDOT>0</MEAN_MOTION_DDOT></tleParameters></data></segment></body></omm>

</ndm>
